CCSDS_OMM_VERS = 2.0
CREATION_DATE  = 
ORIGINATOR     = 

OBJECT_NAME    = CZ-2C R/B
OBJECT_ID      = 2022-132E
CENTER_NAME    = EARTH
REF_FRAME      = TEME
TIME_SYSTEM    = UTC
MEAN_ELEMENT_THEORY = SGP/SGP4

EPOCH          = 2026-02-18T12:34:38.555040
MEAN_MOTION    = 15.60125504
ECCENTRICITY   = .00197648
INCLINATION    = 97.2957
RA_OF_ASC_NODE = 52.2868
ARG_OF_PERICENTER = 153.8230
MEAN_ANOMALY   = 206.4031

EPHEMERIS_TYPE = 0
CLASSIFICATION_TYPE = U
NORAD_CAT_ID   = 54039
ELEMENT_SET_NO = 999
REV_AT_EPOCH   = 18738
BSTAR          = .44722007E-3
MEAN_MOTION_DOT = .36627E-3
MEAN_MOTION_DDOT = 0

CCSDS_OMM_VERS = 2.0
CREATION_DATE  = 
ORIGINATOR     = 

OBJECT_NAME    = GSLV R/B
OBJECT_ID      = 2022-138AN
CENTER_NAME    = EARTH
REF_FRAME      = TEME
TIME_SYSTEM    = UTC
MEAN_ELEMENT_THEORY = SGP/SGP4

EPOCH          = 2026-02-18T09:33:50.490720
MEAN_MOTION    = 14.96620677
ECCENTRICITY   = .00202135
INCLINATION    = 87.3876
RA_OF_ASC_NODE = 172.8168
ARG_OF_PERICENTER = 216.6797
MEAN_ANOMALY   = 143.3052

EPHEMERIS_TYPE = 0
CLASSIFICATION_TYPE = U
NORAD_CAT_ID   = 54149
ELEMENT_SET_NO = 999
REV_AT_EPOCH   = 18104
BSTAR          = .29197877E-3
MEAN_MOTION_DOT = .3366E-4
MEAN_MOTION_DDOT = 0

CCSDS_OMM_VERS = 2.0
CREATION_DATE  = 
ORIGINATOR     = 

OBJECT_NAME    = XRISM
OBJECT_ID      = 2023-137A
CENTER_NAME    = EARTH
REF_FRAME      = TEME
TIME_SYSTEM    = UTC
MEAN_ELEMENT_THEORY = SGP/SGP4

EPOCH          = 2026-02-18T10:07:53.211360
MEAN_MOTION    = 15.11251111
ECCENTRICITY   = .00082359
INCLINATION    = 31.0028
RA_OF_ASC_NODE = 48.2585
ARG_OF_PERICENTER = 207.4674
MEAN_ANOMALY   = 152.5530

EPHEMERIS_TYPE = 0
CLASSIFICATION_TYPE = U
NORAD_CAT_ID   = 57800
ELEMENT_SET_NO = 999
REV_AT_EPOCH   = 13487
BSTAR          = .29486143E-3
MEAN_MOTION_DOT = .5182E-4
MEAN_MOTION_DDOT = 0

CCSDS_OMM_VERS = 2.0
CREATION_DATE  = 
ORIGINATOR     = 

OBJECT_NAME    = ACS3
OBJECT_ID      = 2024-077B
CENTER_NAME    = EARTH
REF_FRAME      = TEME
TIME_SYSTEM    = UTC
MEAN_ELEMENT_THEORY = SGP/SGP4

EPOCH          = 2026-02-18T09:51:14.991552
MEAN_MOTION    = 13.88755856
ECCENTRICITY   = .00483495
INCLINATION    = 97.2179
RA_OF_ASC_NODE = 354.8572
ARG_OF_PERICENTER = 133.3882
MEAN_ANOMALY   = 227.1323

EPHEMERIS_TYPE = 0
CLASSIFICATION_TYPE = U
NORAD_CAT_ID   = 59588
ELEMENT_SET_NO = 999
REV_AT_EPOCH   = 9152
BSTAR          = .12384233E-1
MEAN_MOTION_DOT = .15079E-3
MEAN_MOTION_DDOT = 0

CCSDS_OMM_VERS = 2.0
CREATION_DATE  = 
ORIGINATOR     = 

OBJECT_NAME    = SZ-21 MODULE
OBJECT_ID      = 2025-246C
CENTER_NAME    = EARTH
REF_FRAME      = TEME
TIME_SYSTEM    = UTC
MEAN_ELEMENT_THEORY = SGP/SGP4

EPOCH          = 2026-02-18T03:13:55.040448
MEAN_MOTION    = 15.67019082
ECCENTRICITY   = .00018684
INCLINATION    = 41.4764
RA_OF_ASC_NODE = 323.5946
ARG_OF_PERICENTER = 299.0458
MEAN_ANOMALY   = 61.0196

EPHEMERIS_TYPE = 0
CLASSIFICATION_TYPE = U
NORAD_CAT_ID   = 66515
ELEMENT_SET_NO = 999
REV_AT_EPOCH   = 1500
BSTAR          = .29213369E-3
MEAN_MOTION_DOT = .31807E-3
MEAN_MOTION_DDOT = 0

